satname,norad_id,inclination_deg,eccentricity,mean_motion_rev_per_day,perigee_km,apogee_km,l1,l2
STARLINK-1336,45557,53.0345,0.0003351,16.06057319,255.45756016427913,259.9048855372348,1 45557U 20025AC  25289.59091880  .00607309  19131-3  81029-3 0  9997,2 45557  53.0345 313.1440 0003351  57.6250 302.5106 16.06057319304496
STARLINK-1356,45564,53.0546,0.0001359,15.06411881,546.233994703327,548.1162945442366,1 45564U 20025AK  25289.50179669  .00007604  00000+0  52863-3 0  9995,2 45564  53.0546  13.9011 0001359  90.0814 270.0331 15.06411881303630
STARLINK-1357,45565,53.0632,0.0005193,15.29609384,473.41924794585157,480.53897153742855,1 45565U 20025AL  25289.50680388  .00043260  00000+0  14906-2 0  9994,2 45565  53.0632   1.4895 0005193 268.1505  91.8900 15.29609384303817
STARLINK-1361,45567,53.0548,0.0001329,15.06394309,546.3086189471233,548.1493812299477,1 45567U 20025AN  25289.52023110  .00004890  00000+0  34701-3 0  9994,2 45567  53.0548  13.8180 0001329  93.4714 266.6427 15.06394309303647
STARLINK-1363,45568,53.055,0.0001482,15.15834266,517.4248877943783,519.4690352805774,1 45568U 20025AP  25289.66668981  .01567805  00000+0  73540-1 0  9994,2 45568  53.0550  13.2319 0001482  56.0699  27.9319 15.15834266  5790
STARLINK-1366,45569,53.054,0.0001223,15.17993729,511.0621431025129,512.7474473256225,1 45569U 20025AQ  25289.66668981  .02083828  00000+0  92288-1 0  9994,2 45569  53.0540  12.8746 0001223  85.2093 118.3775 15.17993729  5652
STARLINK-1376,45570,53.0555,0.0001465,15.06387576,546.2350668284298,548.2642051127705,1 45570U 20025AR  25289.51654073  .00000959  00000+0  83293-4 0  9998,2 45570  53.0555  13.8372 0001465  90.1180 269.9977 15.06387576303637
STARLINK-1320,45572,53.06,0.0009372,15.39973543,439.79172197412845,452.58323577733336,1 45572U 20025AT  25289.41572230  .00034022  00000+0  84572-3 0  9991,2 45572  53.0600 321.3339 0009372 311.6777  48.3424 15.39973543304388
STARLINK-1321,45573,53.0557,0.0001521,15.06404968,546.1429885758835,548.2496749754091,1 45573U 20025AU  25289.50271606  .00007301  00000+0  50843-3 0  9999,2 45573  53.0557   3.8995 0001521  98.7994 261.3167 15.06404968303476
STARLINK-1328,45576,53.0534,0.0009028,15.62721833,373.6976285283781,385.8997572154276,1 45576U 20025AX  25289.66668981  .00171051  00000+0  18342-2 0  9996,2 45576  53.0534 345.7099 0009028 336.9408 148.8510 15.62721833  5996
STARLINK-1331,45578,53.0553,0.0001643,15.06377619,546.1423072908156,548.4179993673997,1 45578U 20025AZ  25289.48060362  .00006702  00000+0  46865-3 0  9999,2 45578  53.0553   3.9978 0001643  81.4747 278.6428 15.06377619303786
STARLINK-1333,45580,53.0555,0.0001048,15.06394732,546.5019254256567,547.9534818675411,1 45580U 20025BB  25289.48706549  .00001258  00000+0  10330-3 0  9995,2 45580  53.0555  13.9689 0001048  91.3390 268.7719 15.06394732303636
STARLINK-1335,45581,53.0563,0.0001256,15.06394031,546.360026047365,548.0996782006187,1 45581U 20025BC  25289.49167064  .00000784  00000+0  71536-4 0  9999,2 45581  53.0563   3.9492 0001256  87.0822 273.0311 15.06394031303774
STARLINK-1337,45582,53.0554,0.0001346,15.06409445,546.250462505277,548.1147585444305,1 45582U 20025BD  25289.51377195  .00006153  00000+0  43151-3 0  9998,2 45582  53.0554   3.8512 0001346  85.7452 274.3691 15.06409445303772
STARLINK-1347,45586,53.0575,0.0005078,15.28829573,475.8277621177831,482.792185264263,1 45586U 20025BH  25289.49617051  .00045934  00000+0  16197-2 0  9996,2 45586  53.0575 351.9417 0005078 279.9373  80.1053 15.28829573303930
STARLINK-1360,45588,53.046,0.0006145,15.71684833,349.9445042143152,358.21840069237896,1 45588U 20025BK  25289.27340864  .00086838  00000+0  65700-3 0  9992,2 45588  53.0460 276.3996 0006145  63.2844 296.8801 15.71684833304989
STARLINK-1364,45589,53.0555,0.0001383,15.06403649,546.2426001425401,548.1581484602721,1 45589U 20025BL  25289.51747092  .00001943  00000+0  14931-3 0  9998,2 45589  53.0555   3.8379 0001383  91.2371 268.8776 15.06403649303776
STARLINK-1365,45590,53.0558,0.0001224,15.06402015,546.3577203527866,548.053044167963,1 45590U 20025BM  25289.59946659  .00004885  00000+0  34658-3 0  9994,2 45590  53.0558  33.4635 0001224  91.4631 268.6498 15.06402015303382
STARLINK-1443,45660,53.055,0.000129,15.06405661,546.3008401171328,548.0875755687566,1 45660U 20035D   25289.45204073  .00009156  00000+0  63268-3 0  9990,2 45660  53.0550 354.1280 0001290  99.8483 260.2652 15.06405661296999
STARLINK-1446,45663,53.0268,0.0001669,15.31704014,469.58495415318885,471.8711053001107,1 45663U 20035G   25289.39208707  .00055949  00000+0  18008-2 0  9996,2 45663  53.0268 320.1435 0001669 237.0771 123.0068 15.31704014297461
STARLINK-1448,45665,53.0551,0.000159,15.06421027,546.0459937872147,548.2482341354553,1 45665U 20035J   25289.45572036  .00007728  00000+0  53684-3 0  9996,2 45665  53.0551 354.1075 0001590  88.3573 271.7599 15.06421027296983
STARLINK-1451,45668,53.0562,0.0001252,15.06390478,546.3736843573288,548.107798943839,1 45668U 20035M   25289.45944475  .00002190  00000+0  16594-3 0  9996,2 45668  53.0562 354.4120 0001252  87.2923 272.8209 15.06390478296990
STARLINK-1452,45669,53.0388,0.0008691,15.24711798,485.68045249800434,497.6215179739411,1 45669U 20035N   25289.42674295  .00055216  00000+0  21980-2 0  9995,2 45669  53.0388 337.5715 0008691 319.7667  40.2685 15.24711798297225
STARLINK-1453,45670,53.0545,0.0001415,15.06397613,546.2389359030094,548.1988116152843,1 45670U 20035P   25289.40319772  .00006467  00000+0  45268-3 0  9991,2 45670  53.0545 324.3509 0001415 102.9120 257.2027 15.06397613297293
STARLINK-1454,45671,53.0561,0.0001384,15.06405223,546.2370842168257,548.1540162667316,1 45671U 20035Q   25289.48152807  .00004814  00000+0  34184-3 0  9993,2 45671  53.0561 353.9972 0001384  88.7794 271.3354 15.06405223296989
STARLINK-1456,45673,53.0556,0.0001423,15.06402905,546.2171787131401,548.1881303788241,1 45673U 20035S   25289.49627772  .00006585  00000+0  46053-3 0  9999,2 45673  53.0556 353.9319 0001423  88.1102 272.0050 15.06402905297000
STARLINK-1457,45674,53.056,0.0001583,15.06395991,546.1275603513659,548.3201295948847,1 45674U 20035T   25289.43729854  .00007384  00000+0  51417-3 0  9996,2 45674  53.0560 354.1940 0001583 110.5595 249.5564 15.06395991296961
STARLINK-1458,45675,53.056,0.0001598,15.06415084,546.0586647245118,548.2719913485535,1 45675U 20035U   25289.49258057  .00009271  00000+0  64018-3 0  9993,2 45675  53.0560 353.9455 0001598 104.6973 255.4193 15.06415084296960
STARLINK-1460,45676,53.0556,0.0001383,15.06416707,546.2025852387269,548.1181224868051,1 45676U 20035V   25289.46309488  .00009831  00000+0  67762-3 0  9997,2 45676  53.0556 354.0765 0001383  88.9091 271.2056 15.06416707296955
STARLINK-1392,45677,53.0547,0.0001477,15.06398809,546.192333662998,548.2380827052966,1 45677U 20035W   25289.47415667  .00002513  00000+0  18754-3 0  9993,2 45677  53.0547 354.0271 0001477  89.6835 270.4323 15.06398809296990
STARLINK-1394,45679,53.0553,0.0001263,15.06408548,546.3106914592727,548.0600278873271,1 45679U 20035Y   25289.47139441  .00004387  00000+0  31318-3 0  9990,2 45679  53.0553 344.0405 0001263 106.5929 253.5199 15.06408548297135
STARLINK-1402,45685,53.0552,0.0001594,15.13436404,524.6291137970029,526.8300664659373,1 45685U 20035AE  25289.66668981  .00086479  00000+0  47425-2 0  9991,2 45685  53.0552 337.4704 0001594  90.6588 142.4356 15.13436404  5802
STARLINK-1404,45686,53.0553,0.0001476,15.06403572,546.1784304630928,548.222790125652,1 45686U 20035AF  25289.43084532  .00005676  00000+0  39957-3 0  9993,2 45686  53.0553 344.2255 0001476  91.2449 268.8709 15.06403572297139
STARLINK-1413,45689,53.0555,0.0001358,15.06405202,546.2551544343205,548.1360747724466,1 45689U 20035AJ  25289.44927460  .00005111  00000+0  36173-3 0  9994,2 45689  53.0555 344.1372 0001358  90.4027 269.7118 15.06405202297041
STARLINK-1417,45693,53.0547,0.000141,15.06393351,546.2554592205915,548.2084132606115,1 45693U 20035AN  25289.44559208  .00005232  00000+0  36991-3 0  9992,2 45693  53.0547 344.1586 0001410  91.9833 268.1318 15.06393351297129
STARLINK-1420,45695,53.0553,0.0001441,15.06391194,546.2406005751072,548.2364938078081,1 45695U 20035AQ  25289.38014044  .00001163  00000+0  96961-4 0  9994,2 45695  53.0553 324.4410 0001441  88.1476 271.9678 15.06391194297405
STARLINK-1422,45696,53.0557,0.0001459,15.06396807,546.2109342582908,548.2317538230818,1 45696U 20035AR  25289.45665403  .00003796  00000+0  27362-3 0  9996,2 45696  53.0557 344.1088 0001459  81.8197 278.2958 15.06396807297125
STARLINK-1351,45697,53.0559,0.000142,15.06403603,546.2171173570441,548.1839132113846,1 45697U 20035AS  25289.36632789  .00003329  00000+0  24222-3 0  9992,2 45697  53.0559 324.5126 0001420  95.0970 265.0181 15.06403603297403
STARLINK-1398,45699,53.0509,0.0001684,15.47035865,424.25693079497796,426.5483629480441,1 45699U 20035AU  25289.66668981  .00093019  00000+0  17973-2 0  9999,2 45699  53.0509 287.3211 0001684   0.3685 308.5823 15.47035865  5910
STARLINK-1400,45700,53.0548,0.0001355,15.06394755,546.2892462467098,548.1660200622946,1 45700U 20035AV  25289.40688481  .00002969  00000+0  21818-3 0  9999,2 45700  53.0548 324.3327 0001355  91.9019 268.2125 15.06394755297403
STARLINK-1403,45701,53.055,0.0001716,15.0641719,545.9704927931853,548.3472543369935,1 45701U 20035AW  25289.37001594  .00007906  00000+0  54878-3 0  9998,2 45701  53.0550 324.4985 0001716  84.2719 275.8466 15.06417190297390
STARLINK-1407,45703,53.0414,0.0010635,15.38039324,444.6439844520901,459.17148960775285,1 45703U 20035AY  25289.29922662  .00097361  00000+0  25365-2 0  9991,2 45703  53.0414 287.0250 0010635 349.5570  10.5210 15.38039324297926
STARLINK-1411,45706,53.0538,0.0001441,15.36479167,455.54561186026604,457.51536303014745,1 45706U 20035BB  25289.66668981  .00107355  00000+0  29412-2 0  9998,2 45706  53.0538 312.2834 0001441  51.7690 197.7344 15.36479167  5862
